1 29155U 06018A   10005.14897711 -.00000086  00000-0  10000-3 0  9091
2 29155 000.3719 092.5419 0003005 157.8140 162.5017 01.00272209 13287